OBJECT_NAME,OBJECT_ID,EPOCH,MEAN_MOTION,ECCENTRICITY,INCLINATION,RA_OF_ASC_NODE,ARG_OF_PERICENTER,MEAN_ANOMALY,EPHEMERIS_TYPE,CLASSIFICATION_TYPE,NORAD_CAT_ID,ELEMENT_SET_NO,REV_AT_EPOCH,BSTAR,MEAN_MOTION_DOT,MEAN_MOTION_DDOT
ONEWEB-0473,2022-012AH,2026-07-08T22:33:22.076640,13.10372712,.0001789,87.8814,31.9416,88.9903,271.1430,0,U,51653,999,21215,.17913375E-2,.638E-5,0
ONEWEB-0474,2022-012AJ,2026-07-09T13:00:46.556928,13.10375430,.0001539,87.8824,31.8078,90.4305,269.6999,0,U,51654,999,21222,.16484E-2,.588E-5,0
ONEWEB-0475,2022-012AK,2026-07-09T16:47:11.979744,13.17648335,.0001283,87.9137,1.3937,105.4247,254.7027,0,U,51655,999,21665,.15811E-3,.74E-6,0
ONEWEB-0490,2022-138A,2026-07-09T06:33:14.889600,13.19726523,.00019967,87.9194,300.5692,106.3914,253.7438,0,U,54113,999,17974,-.39888616E-4,-.3E-7,0
ONEWEB-0492,2022-138B,2026-07-09T14:26:19.574016,13.19727199,.0002192,87.9188,300.5044,105.7541,254.3834,0,U,54114,999,17979,-.29003E-3,-.103E-5,0
ONEWEB-0495,2022-138C,2026-07-09T06:37:47.882496,13.19726208,.00020303,87.9182,300.5719,120.9618,239.1715,0,U,54115,999,17973,.12537368E-3,.63E-6,0
ONEWEB-0497,2022-138D,2026-07-09T06:55:59.741760,13.19726104,.00020529,87.9203,300.5604,99.9611,260.1753,0,U,54116,999,17972,.66499172E-4,.4E-6,0
ONEWEB-0499,2022-138E,2026-07-09T06:32:05.589888,13.19723854,.00018516,87.9187,300.5729,107.7676,252.3659,0,U,54117,999,17973,.14604414E-3,.71E-6,0
ONEWEB-0500,2022-138F,2026-07-09T06:35:31.782624,13.19726057,.00020709,87.9186,300.5696,101.4624,258.6742,0,U,54118,999,17974,.10247016E-3,.54E-6,0
ONEWEB-0501,2022-138G,2026-07-09T07:18:45.061344,13.19725024,.00019849,87.9198,300.5610,111.0393,249.0952,0,U,54119,999,17972,.11274342E-2,.464E-5,0
ONEWEB-0502,2022-138H,2026-07-09T06:58:16.221792,13.19725881,.00018121,87.9191,300.5545,108.9615,251.1715,0,U,54120,999,17974,.49928308E-4,.33E-6,0
ONEWEB-0503,2022-138J,2026-07-09T06:42:20.756160,13.19726638,.00017971,87.9199,300.5623,97.2011,262.9326,0,U,54121,999,17973,.19200578E-3,.9E-6,0
ONEWEB-0504,2022-138K,2026-07-09T06:24:09.124992,13.19726314,.00018131,87.9191,300.5700,106.9191,253.2140,0,U,54122,999,17974,.21709507E-3,.1E-5,0
ONEWEB-0505,2022-138L,2026-07-09T06:19:34.704768,13.19727627,.00018148,87.9190,300.5713,114.6836,245.4486,0,U,54123,999,17972,.1461041E-3,.71E-6,0
ONEWEB-0506,2022-138M,2026-07-09T05:43:13.258560,13.19725464,.00019489,87.9195,300.5732,112.6394,247.4945,0,U,54124,999,17971,.6794078E-4,.4E-6,0
ONEWEB-0507,2022-138N,2026-07-09T06:12:46.526112,13.19726956,.00019572,87.9180,300.5804,107.0731,253.0617,0,U,54125,999,17976,.13545277E-3,.67E-6,0
ONEWEB-0508,2022-138P,2026-07-09T06:08:13.926336,13.19725796,.00021103,87.9185,300.5797,113.3185,246.8170,0,U,54126,999,17974,.11334976E-3,.58E-6,0
ONEWEB-0509,2022-138Q,2026-07-09T07:20:59.619840,13.19724486,.00019383,87.9193,300.5622,101.9204,258.2146,0,U,54127,999,17972,.71337456E-4,.42E-6,0
ONEWEB-0510,2022-138R,2026-07-09T04:15:12.338496,13.20769678,.00021173,87.9188,270.0545,87.0981,273.0394,0,U,54128,999,18218,.22499608E-3,.104E-5,0
ONEWEB-0511,2022-138S,2026-07-09T07:16:25.895136,13.19727888,.00016819,87.9191,300.5640,102.8902,257.2419,0,U,54129,999,17975,.17447445E-4,.2E-6,0
ONEWEB-0512,2022-138T,2026-07-09T07:05:04.588800,13.19726535,.0001783,87.9186,300.5689,112.1754,247.9568,0,U,54130,999,17972,.84879722E-4,.47E-6,0
ONEWEB-0513,2022-138U,2026-07-09T07:00:04.333248,13.20269612,.00013118,87.9191,300.5114,125.0156,235.1100,0,U,54131,999,17963,.7492746E-5,.16E-6,0
ONEWEB-0514,2022-138V,2026-07-08T20:32:46.453344,13.19726161,.00019616,87.9192,300.6524,97.3859,262.7497,0,U,54132,999,17968,-.36605415E-4,-.2E-7,0
ONEWEB-0515,2022-138W,2026-07-08T15:12:13.179168,13.20771847,.00028375,87.9193,270.1578,92.3078,267.8381,0,U,54133,999,18213,.16182809E-4,.2E-6,0
ONEWEB-0516,2022-138X,2026-07-09T06:51:25.105536,13.19726695,.00020775,87.9186,300.5707,102.5978,257.5387,0,U,54134,999,17974,-.14158704E-4,.7E-7,0
ONEWEB-0517,2022-138Y,2026-07-09T06:21:52.517952,13.19725958,.00017342,87.9194,300.5696,95.2453,264.8878,0,U,54135,999,17974,.19581074E-3,.91E-6,0
ONEWEB-0518,2022-138Z,2026-07-09T06:49:08.924448,13.19724067,.00021601,87.9209,300.5698,98.8525,261.2852,0,U,54136,999,17974,.15213637E-3,.74E-6,0
ONEWEB-0519,2022-138AA,2026-07-09T07:25:31.893888,13.19727967,.00018195,87.9192,300.5616,98.2635,261.8704,0,U,54137,999,17975,.12503636E-3,.63E-6,0
ONEWEB-0520,2022-138AB,2026-07-08T19:31:22.176768,13.19726049,.00019456,87.9195,300.6603,108.7811,251.3533,0,U,54138,999,17967,.3552724E-4,.27E-6,0
ONEWEB-0521,2022-138AC,2026-07-09T07:14:10.233312,13.19726803,.00018098,87.9196,300.5522,96.2052,263.9287,0,U,54139,999,17968,-.4912207E-5,.11E-6,0
