ONEWEB-0473             
1 51653U 22012AH  26189.93983885  .00000638  00000+0  17913-2 0  9995
2 51653  87.8814  31.9416 0001789  88.9903 271.1430 13.10372712212150
ONEWEB-0474             
1 51654U 22012AJ  26190.54220552  .00000588  00000+0  16484-2 0  9996
2 51654  87.8824  31.8078 0001539  90.4305 269.6999 13.10375430212222
ONEWEB-0475             
1 51655U 22012AK  26190.69944421  .00000074  00000+0  15811-3 0  9995
2 51655  87.9137   1.3937 0001283 105.4247 254.7027 13.17648335216657
ONEWEB-0490             
1 54113U 22138A   26190.27308900 -.00000003  00000+0 -39889-4 0  9992
2 54113  87.9194 300.5692 0001996 106.3914 253.7438 13.19726523179747
ONEWEB-0492             
1 54114U 22138B   26190.60161544 -.00000103  00000+0 -29003-3 0  9998
2 54114  87.9188 300.5044 0002192 105.7541 254.3834 13.19727199179792
ONEWEB-0495             
1 54115U 22138C   26190.27624864  .00000063  00000+0  12537-3 0  9998
2 54115  87.9182 300.5719 0002030 120.9618 239.1715 13.19726208179734
ONEWEB-0497             
1 54116U 22138D   26190.28888590  .00000040  00000+0  66499-4 0  9990
2 54116  87.9203 300.5604 0002052  99.9611 260.1753 13.19726104179724
ONEWEB-0499             
1 54117U 22138E   26190.27228692  .00000071  00000+0  14604-3 0  9995
2 54117  87.9187 300.5729 0001851 107.7676 252.3659 13.19723854179737
ONEWEB-0500             
1 54118U 22138F   26190.27467341  .00000054  00000+0  10247-3 0  9992
2 54118  87.9186 300.5696 0002070 101.4624 258.6742 13.19726057179749
ONEWEB-0501             
1 54119U 22138G   26190.30468821  .00000464  00000+0  11274-2 0  9996
2 54119  87.9198 300.5610 0001984 111.0393 249.0952 13.19725024179720
ONEWEB-0502             
1 54120U 22138H   26190.29046553  .00000033  00000+0  49928-4 0  9991
2 54120  87.9191 300.5545 0001812 108.9615 251.1715 13.19725881179748
ONEWEB-0503             
1 54121U 22138J   26190.27940690  .00000090  00000+0  19201-3 0  9998
2 54121  87.9199 300.5623 0001797  97.2011 262.9326 13.19726638179734
ONEWEB-0504             
1 54122U 22138K   26190.26677228  .00000100  00000+0  21710-3 0  9992
2 54122  87.9191 300.5700 0001813 106.9191 253.2140 13.19726314179748
ONEWEB-0505             
1 54123U 22138L   26190.26359612  .00000071  00000+0  14610-3 0  9995
2 54123  87.9190 300.5713 0001814 114.6836 245.4486 13.19727627179727
ONEWEB-0506             
1 54124U 22138M   26190.23834790  .00000040  00000+0  67941-4 0  9990
2 54124  87.9195 300.5732 0001948 112.6394 247.4945 13.19725464179717
ONEWEB-0507             
1 54125U 22138N   26190.25887183  .00000067  00000+0  13545-3 0  9996
2 54125  87.9180 300.5804 0001957 107.0731 253.0617 13.19726956179766
ONEWEB-0508             
1 54126U 22138P   26190.25571674  .00000058  00000+0  11335-3 0  9997
2 54126  87.9185 300.5797 0002110 113.3185 246.8170 13.19725796179741
ONEWEB-0509             
1 54127U 22138Q   26190.30624560  .00000042  00000+0  71337-4 0  9999
2 54127  87.9193 300.5622 0001938 101.9204 258.2146 13.19724486179723
ONEWEB-0510             
1 54128U 22138R   26190.17722614  .00000104  00000+0  22500-3 0  9990
2 54128  87.9188 270.0545 0002117  87.0981 273.0394 13.20769678182187
ONEWEB-0511             
1 54129U 22138S   26190.30307749  .00000020  00000+0  17447-4 0  9996
2 54129  87.9191 300.5640 0001681 102.8902 257.2419 13.19727888179757
ONEWEB-0512             
1 54130U 22138T   26190.29519200  .00000047  00000+0  84880-4 0  9997
2 54130  87.9186 300.5689 0001783 112.1754 247.9568 13.19726535179724
ONEWEB-0513             
1 54131U 22138U   26190.29171682  .00000016  00000+0  74927-5 0  9994
2 54131  87.9191 300.5114 0001311 125.0156 235.1100 13.20269612179631
ONEWEB-0514             
1 54132U 22138V   26189.85609321 -.00000002  00000+0 -36605-4 0  9998
2 54132  87.9192 300.6524 0001961  97.3859 262.7497 13.19726161179686
ONEWEB-0515             
1 54133U 22138W   26189.63348587  .00000020  00000+0  16183-4 0  9996
2 54133  87.9193 270.1578 0002837  92.3078 267.8381 13.20771847182134
ONEWEB-0516             
1 54134U 22138X   26190.28570724  .00000007  00000+0 -14159-4 0  9997
2 54134  87.9186 300.5707 0002077 102.5978 257.5387 13.19726695179742
ONEWEB-0517             
1 54135U 22138Y   26190.26519118  .00000091  00000+0  19581-3 0  9991
2 54135  87.9194 300.5696 0001734  95.2453 264.8878 13.19725958179741
ONEWEB-0518             
1 54136U 22138Z   26190.28413107  .00000074  00000+0  15214-3 0  9995
2 54136  87.9209 300.5698 0002160  98.8525 261.2852 13.19724067179747
ONEWEB-0519             
1 54137U 22138AA  26190.30939692  .00000063  00000+0  12504-3 0  9998
2 54137  87.9192 300.5616 0001819  98.2635 261.8704 13.19727967179750
ONEWEB-0520             
1 54138U 22138AB  26189.81345112  .00000027  00000+0  35527-4 0  9992
2 54138  87.9195 300.6603 0001945 108.7811 251.3533 13.19726049179679
ONEWEB-0521             
1 54139U 22138AC  26190.30150733  .00000011  00000+0 -49122-5 0  9993
2 54139  87.9196 300.5522 0001809  96.2052 263.9287 13.19726803179681
